NORAD_CAT_ID,OBJECT_NAME,OBJECT_TYPE,EPOCH,MEAN_MOTION,ECCENTRICITY,INCLINATION,RA_OF_ASC_NODE,ARG_OF_PERICENTER,MEAN_ANOMALY,BSTAR,MEAN_MOTION_DOT,MEAN_MOTION_DDOT,TLE_LINE0,TLE_LINE1,TLE_LINE2,SEMIMAJOR_AXIS,PERIOD,APOGEE,PERIGEE,DECAYED
56790.0,STARLINK-6345,PAYLOAD,2023-10-01 18:52:40,15.69916943,0.000352,69.9982,66.0402,271.1003,88.979,-1.492e-05,-2.006e-05,0.0,0 STARLINK-6345,1 56790U 23078Z   23274.78658279 -.00002006  00000-0 -14920-4 0  9997,2 56790  69.9982  66.0402 0003520 271.1003  88.9790 15.69916943 19693,6737.272,91.725,361.508,356.765,0.0
56790.0,STARLINK-6345,PAYLOAD,2023-10-01 20:24:25,15.69917571,0.0003561,69.9982,65.8605,268.5014,91.5774,-1.2996e-05,-1.775e-05,0.0,0 STARLINK-6345,1 56790U 23078Z   23274.85029875 -.00001775  00000-0 -12996-4 0  9992,2 56790  69.9982  65.8605 0003561 268.5014  91.5774 15.69917571 19445,6737.27,91.725,361.534,356.736,0.0
56790.0,STARLINK-6345,PAYLOAD,2023-10-02 10:10:11,15.69926705,0.0003946,69.9981,64.2461,272.3141,87.7603,7.9749e-06,7.46e-06,0.0,0 STARLINK-6345,1 56790U 23078Z   23275.42374107  .00000746  00000-0  79749-5 0  9992,2 56790  69.9981  64.2461 0003946 272.3141  87.7603 15.69926705 19793,6737.244,91.724,361.767,356.45,0.0
56790.0,STARLINK-6345,PAYLOAD,2023-10-02 19:20:41,15.69926842,0.0003569,69.9978,63.1718,270.7326,89.3461,6.1435e-06,5.26e-06,0.0,0 STARLINK-6345,1 56790U 23078Z   23275.80604128  .00000526  00000-0  61435-5 0  9992,2 56790  69.9978  63.1718 0003569 270.7326  89.3461 15.69926842 19590,6737.243,91.724,361.513,356.704,0.0
56790.0,STARLINK-6345,PAYLOAD,2023-10-03 12:09:58,15.69919351,0.0003212,69.9983,61.201,264.1296,95.9534,7.1797e-06,6.5e-06,0.0,0 STARLINK-6345,1 56790U 23078Z   23276.50692854  .00000650  00000-0  71797-5 0  9993,2 56790  69.9983  61.2010 0003212 264.1296  95.9534 15.69919351 19960,6737.265,91.724,361.294,356.966,0.0
56790.0,STARLINK-6345,PAYLOAD,2023-10-03 19:48:43,15.69925437,0.0002964,69.9987,60.3052,258.2133,101.873,9.1505e-06,8.88e-06,0.0,0 STARLINK-6345,1 56790U 23078Z   23276.82550787  .00000888  00000-0  91505-5 0  9998,2 56790  69.9987  60.3052 0002964 258.2133 101.8730 15.69925437 19751,6737.247,91.724,361.109,357.115,0.0
56790.0,STARLINK-6345,PAYLOAD,2023-10-04 12:38:00,15.69925571,0.0003023,69.9989,58.3345,263.2793,96.8059,1.6543e-05,1.777e-05,0.0,0 STARLINK-6345,1 56790U 23078Z   23277.52638925  .00001777  00000-0  16543-4 0  9993,2 56790  69.9989  58.3345 0003023 263.2793  96.8059 15.69925571 19868,6737.247,91.724,361.149,357.075,0.0
56790.0,STARLINK-6345,PAYLOAD,2023-10-04 18:45:01,15.69916125,0.0003155,69.9978,57.6178,265.2593,94.8243,5.9192e-06,4.99e-06,0.0,0 STARLINK-6345,1 56790U 23078Z   23277.78126473  .00000499  00000-0  59192-5 0  9999,2 56790  69.9978  57.6178 0003155 265.2593  94.8243 15.69916125 20161,6737.274,91.725,361.265,357.013,0.0
56790.0,STARLINK-6345,PAYLOAD,2023-10-05 10:02:32,15.69925295,0.000309,69.9983,55.8267,267.7614,92.3228,9.53e-06,9.33e-06,0.0,0 STARLINK-6345,1 56790U 23078Z   23278.41842778  .00000933  00000-0  95300-5 0  9997,2 56790  69.9983  55.8267 0003090 267.7614  92.3228 15.69925295 20260,6737.248,91.724,361.195,357.031,0.0
56790.0,STARLINK-6345,PAYLOAD,2023-10-05 13:06:02,15.69925867,0.0003043,69.9978,55.4686,268.9857,91.099,1.6932e-07,-1.92e-06,0.0,0 STARLINK-6345,1 56790U 23078Z   23278.54586298 -.00000192  00000-0  16932-6 0  9996,2 56790  69.9978  55.4686 0003043 268.9857  91.0990 15.69925867 20026,6737.246,91.724,361.161,357.061,0.0
56790.0,STARLINK-6345,PAYLOAD,2023-10-05 19:13:03,15.69920195,0.0003499,69.9972,54.7526,269.7533,90.3262,2.1377e-05,2.358e-05,0.0,0 STARLINK-6345,1 56790U 23078Z   23278.80073008  .00002358  00000-0  21377-4 0  9997,2 56790  69.9972  54.7526 0003499 269.7533  90.3262 15.69920195 20067,6737.262,91.724,361.485,356.77,0.0
56790.0,STARLINK-6345,PAYLOAD,2023-10-06 10:30:33,15.69930317,0.0002522,69.9987,52.9597,257.168,102.9234,3.2647e-05,3.715e-05,0.0,0 STARLINK-6345,1 56790U 23078Z   23279.43788920  .00003715  00000-0  32647-4 0  9993,2 56790  69.9987  52.9597 0002522 257.1680 102.9234 15.69930317 20427,6737.233,91.724,360.797,357.399,0.0
56790.0,STARLINK-6345,PAYLOAD,2023-10-06 12:02:19,15.69923944,0.0002751,69.9983,52.7805,260.9996,99.0888,7.4885e-06,6.88e-06,0.0,0 STARLINK-6345,1 56790U 23078Z   23279.50161406  .00000688  00000-0  74885-5 0  9992,2 56790  69.9983  52.7805 0002751 260.9996  99.0888 15.69923944 20170,6737.252,91.724,360.97,357.263,0.0
56790.0,STARLINK-6345,PAYLOAD,2023-10-06 18:09:19,15.69927374,0.0002958,69.999,52.0645,265.6776,94.4082,1.1054e-05,1.117e-05,0.0,0 STARLINK-6345,1 56790U 23078Z   23279.75647849  .00001117  00000-0  11054-4 0  9995,2 56790  69.9990  52.0645 0002958 265.6776  94.4082 15.69927374 20479,6737.242,91.724,361.1,357.114,0.0
56790.0,STARLINK-6345,PAYLOAD,2023-10-06 21:12:49,15.69931379,0.0003515,69.9982,51.7064,264.1485,95.931,3.2142e-05,3.655e-05,0.0,0 STARLINK-6345,1 56790U 23078Z   23279.88390553  .00003655  00000-0  32142-4 0  9996,2 56790  69.9982  51.7064 0003515 264.1485  95.9310 15.69931379 20236,6737.23,91.724,361.463,356.727,0.0
56790.0,STARLINK-6345,PAYLOAD,2023-10-07 10:58:36,15.69922681,0.0002708,69.9985,50.0959,265.3641,94.7246,-8.1752e-06,-1.195e-05,0.0,0 STARLINK-6345,1 56790U 23078Z   23280.45736947 -.00001195  00000-0 -81752-5 0  9993,2 56790  69.9985  50.0959 0002708 265.3641  94.7246 15.69922681 20583,6737.255,91.724,360.945,357.296,0.0
56790.0,STARLINK-6345,PAYLOAD,2023-10-07 12:30:22,15.69909302,0.0003186,69.9984,49.9157,260.5451,99.5385,-4.9251e-06,-8.04e-06,0.0,0 STARLINK-6345,1 56790U 23078Z   23280.52109371 -.00000804  00000-0 -49251-5 0  9990,2 56790  69.9984  49.9157 0003186 260.5451  99.5385 15.69909302 20331,6737.293,91.725,361.305,357.012,0.0
56790.0,STARLINK-6345,PAYLOAD,2023-10-07 18:37:22,15.69917546,0.0002683,69.9988,49.1983,260.2306,99.8587,-6.1133e-06,-9.47e-06,0.0,0 STARLINK-6345,1 56790U 23078Z   23280.77595716 -.00000947  00000-0 -61133-5 0  9990,2 56790  69.9988  49.1983 0002683 260.2306  99.8587 15.69917546 20371,6737.27,91.725,360.943,357.327,0.0
56790.0,STARLINK-6345,PAYLOAD,2023-10-08 09:54:52,15.69940569,0.0003347,69.9989,47.4064,264.6573,95.4241,4.3326e-06,3.09e-06,0.0,0 STARLINK-6345,1 56790U 23078Z   23281.41310773  .00000309  00000-0  43326-5 0  9994,2 56790  69.9989  47.4064 0003347 264.6573  95.4241 15.69940569 20735,6737.204,91.723,361.324,356.814,0.0
56790.0,STARLINK-6345,PAYLOAD,2023-10-08 11:26:37,15.69937555,0.0003277,69.9974,47.2289,258.7657,101.317,5.0669e-06,3.97e-06,0.0,0 STARLINK-6345,1 56790U 23078Z   23281.47682525  .00000397  00000-0  50669-5 0  9992,2 56790  69.9974  47.2289 0003277 258.7657 101.3170 15.69937555 20486,6737.213,91.723,361.285,356.87,0.0
56790.0,STARLINK-6345,PAYLOAD,2023-10-08 17:33:38,15.69933542,0.0003501,69.9977,46.5118,261.5327,98.5472,1.1878e-06,-7e-07,0.0,0 STARLINK-6345,1 56790U 23078Z   23281.73169342 -.00000070  00000-0  11878-5 0  9996,2 56790  69.9977  46.5118 0003501 261.5327  98.5472 15.69933542 20785,6737.224,91.724,361.448,356.73,0.0
56790.0,STARLINK-6345,PAYLOAD,2023-10-09 08:51:10,15.69917189,0.0002918,69.9999,44.7187,276.0655,84.0208,7.9e-06,7.37e-06,0.0,0 STARLINK-6345,1 56790U 23078Z   23282.36887205  .00000737  00000-0  79000-5 0  9991,2 56790  69.9999  44.7187 0002918 276.0655  84.0208 15.69917189 20888,6737.271,91.725,361.102,357.17,0.0
56790.0,STARLINK-6345,PAYLOAD,2023-10-09 11:54:40,15.69927291,0.0002037,70.0001,44.3602,266.4717,93.6245,-9.5544e-06,-1.36e-05,0.0,0 STARLINK-6345,1 56790U 23078Z   23282.49630370 -.00001360  00000-0 -95544-5 0  9990,2 56790  70.0001  44.3602 0002037 266.4717  93.6245 15.69927291 20643,6737.242,91.724,360.479,357.735,0.0
56790.0,STARLINK-6345,PAYLOAD,2023-10-09 18:01:40,15.69930611,0.0002615,69.999,43.6448,259.3802,100.7099,1.1744e-05,1.2e-05,0.0,0 STARLINK-6345,1 56790U 23078Z   23282.75116403  .00001200  00000-0  11744-4 0  9995,2 56790  69.9990  43.6448 0002615 259.3802 100.7099 15.69930611 20945,6737.233,91.724,360.859,357.336,0.0
56790.0,STARLINK-6345,PAYLOAD,2023-10-10 10:50:57,15.69911706,0.0003186,69.9994,41.6741,268.8222,91.2609,-1.2467e-05,-1.711e-05,0.0,0 STARLINK-6345,1 56790U 23078Z   23283.45205578 -.00001711  00000-0 -12467-4 0  9997,2 56790  69.9994  41.6741 0003186 268.8222  91.2609 15.69911706 21056,6737.287,91.725,361.298,357.005,0.0
56790.0,STARLINK-6345,PAYLOAD,2023-10-10 16:57:58,15.69916297,0.0002908,70.0005,40.9593,263.7204,96.3661,2.2173e-06,5.4e-07,0.0,0 STARLINK-6345,1 56790U 23078Z   23283.70692290  .00000054  00000-0  22173-5 0  9999,2 56790  70.0005  40.9593 0002908 263.7204  96.3661 15.69916297 20833,6737.273,91.725,361.098,357.179,0.0
56790.0,STARLINK-6345,PAYLOAD,2023-10-11 11:18:59,15.69925415,0.0003818,69.9995,38.8067,289.2417,70.8366,1.0482e-05,1.048e-05,0.0,0 STARLINK-6345,1 56790U 23078Z   23284.47152069  .00001048  00000-0  10482-4 0  9992,2 56790  69.9995  38.8067 0003818 289.2417  70.8366 15.69925415 21214,6737.247,91.724,361.685,356.54,0.0
56790.0,STARLINK-6345,PAYLOAD,2023-10-11 14:22:29,15.69922329,0.0003523,69.9996,38.4497,283.1819,76.8984,2.2661e-05,2.513e-05,0.0,0 STARLINK-6345,1 56790U 23078Z   23284.59895556  .00002513  00000-0  22661-4 0  9990,2 56790  69.9996  38.4497 0003523 283.1819  76.8984 15.69922329 20975,6737.256,91.724,361.495,356.748,0.0
56790.0,STARLINK-6345,PAYLOAD,2023-10-12 10:15:16,15.69918008,0.0003208,70.0,36.1227,280.0249,80.0585,2.1713e-05,2.398e-05,0.0,0 STARLINK-6345,1 56790U 23078Z   23285.42727611  .00002398  00000-0  21713-4 0  9997,2 56790  70.0000  36.1227 0003208 280.0249  80.0585 15.69918008 21360,6737.269,91.725,361.295,356.972,0.0
56790.0,STARLINK-6345,PAYLOAD,2023-10-12 16:22:16,15.69923102,0.0003032,69.9998,35.4042,272.2125,87.8724,2.5343e-05,2.835e-05,0.0,0 STARLINK-6345,1 56790U 23078Z   23285.68214027  .00002835  00000-0  25343-4 0  9996,2 56790  69.9998  35.4042 0003032 272.2125  87.8724 15.69923102 21148,6737.254,91.724,361.162,357.076,0.0
